{
  "norad_id": 45755,
  "name": "STARLINK-1478",
  "history": [
    {
      "epoch": "2026-03-28T07:33:34.413696Z",
      "apogee_km": 395.6942445683544,
      "perigee_km": 389.8049274158593,
      "latitude_deg": 1.8631618913400187e-05,
      "longitude_deg": 168.47282776703238,
      "height_km": 390.70846496961667,
      "semi_major_axis_km": 6770.886585992107,
      "eccentricity": 0.0004349,
      "inclination_deg": 53.0493,
      "raan_deg": 107.6034,
      "arg_perigee_deg": 356.7865,
      "mean_anomaly_deg": 3.3118,
      "mean_motion_rev_day": 15.58240375
    },
    {
      "epoch": "2026-03-29T05:06:31.459104Z",
      "apogee_km": 395.1999145832515,
      "perigee_km": 389.28801792351896,
      "latitude_deg": -3.79048847211734e-05,
      "longitude_deg": -160.01289722773444,
      "height_km": 390.18692855584413,
      "semi_major_axis_km": 6770.380966253385,
      "eccentricity": 0.0004366,
      "inclination_deg": 53.0488,
      "raan_deg": 103.2404,
      "arg_perigee_deg": 0.8833,
      "mean_anomaly_deg": 359.2185,
      "mean_motion_rev_day": 15.58414935
    },
    {
      "epoch": "2026-03-29T06:38:52.317024Z",
      "apogee_km": 395.1445401752717,
      "perigee_km": 389.264498565698,
      "latitude_deg": 2.5392888521777692e-05,
      "longitude_deg": 176.5252324443854,
      "height_km": 390.1636152339691,
      "semi_major_axis_km": 6770.341519370484,
      "eccentricity": 0.00043425,
      "inclination_deg": 53.0488,
      "raan_deg": 102.9286,
      "arg_perigee_deg": 1.1419,
      "mean_anomaly_deg": 358.9602,
      "mean_motion_rev_day": 15.58428555
    }
  ]
}